start=new Date('2023-03-15T00:00:00.000Z').valueOf();
sats=[{"TIME_SYSTEM":"UTC","OBJECT_ID":"2020-070AX","BSTAR":"0.00341690000000","MEAN_MOTION":"15.06432518","REV_AT_EPOCH":"13529","EPHEMERIS_TYPE":"0","LAUNCH_DATE":"2020-10-06","SEMIMAJOR_AXIS":"6925.249","RA_OF_ASC_NODE":"18.7452","MEAN_MOTION_DOT":"0.00051028","CENTER_NAME":"EARTH","SITE":"AFETR","OBJECT_NAME":"STARLINK-1682","COUNTRY_CODE":"US","GP_ID":"228104771","MEAN_ELEMENT_THEORY":"SGP4","ELEMENT_SET_NO":"999","ARG_OF_PERICENTER":"117.4380","TLE_LINE2":"2 46577  53.0563  18.7452 0001236 117.4380 242.6735 15.06432518135290","RCS_SIZE":"LARGE","DECAY_DATE":null,"TLE_LINE1":"1 46577U 20070AX  23073.81479868  .00051028  00000-0  34169-2 0  9995","CLASSIFICATION_TYPE":"U","MEAN_MOTION_DDOT":"0.0000000000000","ECCENTRICITY":"0.00012360","OBJECT_TYPE":"PAYLOAD","NORAD_CAT_ID":"46577","APOAPSIS":"547.970","EPOCH":"2023-03-14T19:33:18.605952","REF_FRAME":"TEME","PERIOD":"95.590","FILE":"3860643","INCLINATION":"53.0563","MEAN_ANOMALY":"242.6735","PERIAPSIS":"546.258"},{"RA_OF_ASC_NODE":"5.0776","MEAN_MOTION_DOT":"-0.00004722","CENTER_NAME":"EARTH","LAUNCH_DATE":"2020-10-06","SEMIMAJOR_AXIS":"6925.428","GP_ID":"228084584","COUNTRY_CODE":"US","ELEMENT_SET_NO":"999","ARG_OF_PERICENTER":"88.2588","MEAN_ELEMENT_THEORY":"SGP4","OBJECT_NAME":"STARLINK-1683","RCS_SIZE":"LARGE","TLE_LINE2":"2 46578  53.0541   5.0776 0000856  88.2588 271.8499 15.06374062135163","SITE":"AFETR","BSTAR":"-0.00029858000000","TIME_SYSTEM":"UTC","OBJECT_ID":"2020-070AY","MEAN_MOTION":"15.06374062","EPHEMERIS_TYPE":"0","REV_AT_EPOCH":"13516","REF_FRAME":"TEME","EPOCH":"2023-03-14T12:43:55.740000","APOAPSIS":"547.886","INCLINATION":"53.0541","FILE":"3860572","MEAN_ANOMALY":"271.8499","PERIAPSIS":"546.700","PERIOD":"95.594","DECAY_DATE":null,"CLASSIFICATION_TYPE":"U","TLE_LINE1":"1 46578U 20070AY  23073.53050625 -.00004722  00000-0 -29858-3 0  9992","MEAN_MOTION_DDOT":"0.0000000000000","NORAD_CAT_ID":"46578","ECCENTRICITY":"0.00008560","OBJECT_TYPE":"PAYLOAD"},{"TLE_LINE1":"1 46579U 20070AZ  23073.26932036 -.00007454  00000-0 -48233-3 0  9991","CLASSIFICATION_TYPE":"U","DECAY_DATE":null,"OBJECT_TYPE":"PAYLOAD","ECCENTRICITY":"0.00021550","NORAD_CAT_ID":"46579","MEAN_MOTION_DDOT":"0.0000000000000","REF_FRAME":"TEME","EPOCH":"2023-03-14T06:27:49.279104","APOAPSIS":"548.786","PERIAPSIS":"545.802","MEAN_ANOMALY":"214.4425","FILE":"3860373","INCLINATION":"53.0544","PERIOD":"95.594","MEAN_MOTION":"15.06373757","OBJECT_ID":"2020-070AZ","TIME_SYSTEM":"UTC","BSTAR":"-0.00048233000000","REV_AT_EPOCH":"13521","EPHEMERIS_TYPE":"0","MEAN_MOTION_DOT":"-0.00007454","CENTER_NAME":"EARTH","RA_OF_ASC_NODE":"21.1906","SEMIMAJOR_AXIS":"6925.429","LAUNCH_DATE":"2020-10-06","RCS_SIZE":"LARGE","TLE_LINE2":"2 46579  53.0544  21.1906 0002155 145.6703 214.4425 15.06373757135210","OBJECT_NAME":"STARLINK-1705","ARG_OF_PERICENTER":"145.6703","GP_ID":"228072329","COUNTRY_CODE":"US","ELEMENT_SET_NO":"999","MEAN_ELEMENT_THEORY":"SGP4","SITE":"AFETR"},{"ECCENTRICITY":"0.00013930","OBJECT_TYPE":"PAYLOAD","NORAD_CAT_ID":"46580","MEAN_MOTION_DDOT":"0.0000000000000","TLE_LINE1":"1 46580U 20070BA  23073.57892816  .00040787  00000-0  27447-2 0  9995","CLASSIFICATION_TYPE":"U","DECAY_DATE":null,"PERIAPSIS":"546.391","INCLINATION":"53.0547","FILE":"3860373","MEAN_ANOMALY":"258.9501","PERIOD":"95.595","EPOCH":"2023-03-14T13:53:39.393024","REF_FRAME":"TEME","APOAPSIS":"548.321","REV_AT_EPOCH":"13526","EPHEMERIS_TYPE":"0","MEAN_MOTION":"15.06353492","TIME_SYSTEM":"UTC","OBJECT_ID":"2020-070BA","BSTAR":"0.00274470000000","RCS_SIZE":"LARGE","TLE_LINE2":"2 46580  53.0547  19.8036 0001393 101.1644 258.9501 15.06353492135264","OBJECT_NAME":"STARLINK-1708","COUNTRY_CODE":"US","GP_ID":"228073578","MEAN_ELEMENT_THEORY":"SGP4","ELEMENT_SET_NO":"999","ARG_OF_PERICENTER":"101.1644","SITE":"AFETR","MEAN_MOTION_DOT":"0.00040787","CENTER_NAME":"EARTH","RA_OF_ASC_NODE":"19.8036","SEMIMAJOR_AXIS":"6925.491","LAUNCH_DATE":"2020-10-06"},{"MEAN_MOTION_DDOT":"0.0000000000000","ECCENTRICITY":"0.00011290","OBJECT_TYPE":"PAYLOAD","NORAD_CAT_ID":"46581","DECAY_DATE":null,"TLE_LINE1":"1 46581U 20070BB  23073.54438745  .00002442  00000-0  18280-3 0  9992","CLASSIFICATION_TYPE":"U","PERIOD":"95.593","FILE":"3860373","INCLINATION":"53.0549","MEAN_ANOMALY":"238.9139","PERIAPSIS":"546.458","APOAPSIS":"548.022","EPOCH":"2023-03-14T13:03:55.075680","REF_FRAME":"TEME","REV_AT_EPOCH":"13532","EPHEMERIS_TYPE":"0","OBJECT_ID":"2020-070BB","TIME_SYSTEM":"UTC","BSTAR":"0.00018280000000","MEAN_MOTION":"15.06391261","SITE":"AFETR","OBJECT_NAME":"STARLINK-1712","GP_ID":"228073329","ELEMENT_SET_NO":"999","COUNTRY_CODE":"US","MEAN_ELEMENT_THEORY":"SGP4","ARG_OF_PERICENTER":"121.1961","RCS_SIZE":"LARGE","TLE_LINE2":"2 46581  53.0549  14.9592 0001129 121.1961 238.9139 15.06391261135329","LAUNCH_DATE":"2020-10-06","SEMIMAJOR_AXIS":"6925.375","RA_OF_ASC_NODE":"14.9592","CENTER_NAME":"EARTH","MEAN_MOTION_DOT":"0.00002442"},{"TLE_LINE1":"1 46582U 20070BC  23073.86133985  .00039143  00000-0  26270-2 0  9991","CLASSIFICATION_TYPE":"U","DECAY_DATE":null,"ECCENTRICITY":"0.00013040","OBJECT_TYPE":"PAYLOAD","NORAD_CAT_ID":"46582","MEAN_MOTION_DDOT":"0.0000000000000","EPOCH":"2023-03-14T20:40:19.763040","REF_FRAME":"TEME","APOAPSIS":"547.892","PERIAPSIS":"546.086","MEAN_ANOMALY":"252.0695","FILE":"3860643","INCLINATION":"53.0531","PERIOD":"95.587","MEAN_MOTION":"15.06473232","TIME_SYSTEM":"UTC","OBJECT_ID":"2020-070BC","BSTAR":"0.00262700000000","REV_AT_EPOCH":"13537","EPHEMERIS_TYPE":"0","MEAN_MOTION_DOT":"0.00039143","CENTER_NAME":"EARTH","RA_OF_ASC_NODE":"13.5337","LAUNCH_DATE":"2020-10-06","SEMIMAJOR_AXIS":"6925.124","TLE_LINE2":"2 46582  53.0531  13.5337 0001304 108.0436 252.0695 15.06473232135377","RCS_SIZE":"LARGE","OBJECT_NAME":"STARLINK-1728","ARG_OF_PERICENTER":"108.0436","GP_ID":"228104523","COUNTRY_CODE":"US","ELEMENT_SET_NO":"999","MEAN_ELEMENT_THEORY":"SGP4","SITE":"AFETR"},{"MEAN_MOTION":"15.06432461","OBJECT_ID":"2020-070BD","TIME_SYSTEM":"UTC","BSTAR":"0.00242750000000","REV_AT_EPOCH":"13509","EPHEMERIS_TYPE":"0","SEMIMAJOR_AXIS":"6925.249","LAUNCH_DATE":"2020-10-06","MEAN_MOTION_DOT":"0.00036094","CENTER_NAME":"EARTH","RA_OF_ASC_NODE":"33.3117","SITE":"AFETR","TLE_LINE2":"2 46583  53.0549  33.3117 0000535 120.9614 239.1428 15.06432461135097","RCS_SIZE":"LARGE","OBJECT_NAME":"STARLINK-1729","COUNTRY_CODE":"US","GP_ID":"228105772","MEAN_ELEMENT_THEORY":"SGP4","ELEMENT_SET_NO":"999","ARG_OF_PERICENTER":"120.9614","TLE_LINE1":"1 46583U 20070BD  23073.91113853  .00036094  00000-0  24275-2 0  9995","CLASSIFICATION_TYPE":"U","DECAY_DATE":null,"ECCENTRICITY":"0.00005350","OBJECT_TYPE":"PAYLOAD","NORAD_CAT_ID":"46583","MEAN_MOTION_DDOT":"0.0000000000000","APOAPSIS":"547.485","REF_FRAME":"TEME","EPOCH":"2023-03-14T21:52:02.368992","PERIOD":"95.590","PERIAPSIS":"546.744","FILE":"3860643","INCLINATION":"53.0549","MEAN_ANOMALY":"239.1428"},{"PERIOD":"95.596","FILE":"3860643","INCLINATION":"53.0536","MEAN_ANOMALY":"245.1112","PERIAPSIS":"546.422","APOAPSIS":"548.342","REF_FRAME":"TEME","EPOCH":"2023-03-14T20:45:40.832352","MEAN_MOTION_DDOT":"0.0000000000000","ECCENTRICITY":"0.00013860","OBJECT_TYPE":"PAYLOAD","NORAD_CAT_ID":"46584","DECAY_DATE":null,"TLE_LINE1":"1 46584U 20070BE  23073.86505593  .00056078  00000-0  37594-2 0  9998","CLASSIFICATION_TYPE":"U","SITE":"AFETR","OBJECT_NAME":"STARLINK-1732","GP_ID":"228105512","ARG_OF_PERICENTER":"115.0021","COUNTRY_CODE":"US","ELEMENT_SET_NO":"999","MEAN_ELEMENT_THEORY":"SGP4","TLE_LINE2":"2 46584  53.0536  13.5201 0001386 115.0021 245.1112 15.06345039135372","RCS_SIZE":"LARGE","SEMIMAJOR_AXIS":"6925.517","LAUNCH_DATE":"2020-10-06","RA_OF_ASC_NODE":"13.5201","MEAN_MOTION_DOT":"0.00056078","CENTER_NAME":"EARTH","REV_AT_EPOCH":"13537","EPHEMERIS_TYPE":"0","OBJECT_ID":"2020-070BE","TIME_SYSTEM":"UTC","BSTAR":"0.00375940000000","MEAN_MOTION":"15.06345039"},{"NORAD_CAT_ID":"46585","OBJECT_TYPE":"PAYLOAD","ECCENTRICITY":"0.00009340","MEAN_MOTION_DDOT":"0.0000000000000","CLASSIFICATION_TYPE":"U","TLE_LINE1":"1 46585U 20070BF  23073.55082091  .00023985  00000-0  16241-2 0  9995","DECAY_DATE":null,"PERIOD":"95.593","PERIAPSIS":"546.601","FILE":"3860373","MEAN_ANOMALY":"225.2258","INCLINATION":"53.0542","APOAPSIS":"547.895","REF_FRAME":"TEME","EPOCH":"2023-03-14T13:13:10.926624","EPHEMERIS_TYPE":"0","REV_AT_EPOCH":"13532","MEAN_MOTION":"15.06388831","BSTAR":"0.00162410000000","OBJECT_ID":"2020-070BF","TIME_SYSTEM":"UTC","SITE":"AFETR","RCS_SIZE":"LARGE","TLE_LINE2":"2 46585  53.0542  14.9244 0000934 134.8807 225.2258 15.06388831135323","ARG_OF_PERICENTER":"134.8807","GP_ID":"228073829","COUNTRY_CODE":"US","ELEMENT_SET_NO":"999","MEAN_ELEMENT_THEORY":"SGP4","OBJECT_NAME":"STARLINK-1736","LAUNCH_DATE":"2020-10-06","SEMIMAJOR_AXIS":"6925.383","CENTER_NAME":"EARTH","MEAN_MOTION_DOT":"0.00023985","RA_OF_ASC_NODE":"14.9244"},{"MEAN_MOTION_DDOT":"0.0000000000000","OBJECT_TYPE":"PAYLOAD","ECCENTRICITY":"0.00008820","NORAD_CAT_ID":"46586","DECAY_DATE":null,"TLE_LINE1":"1 46586U 20070BG  23073.54070235  .00004853  00000-0  34466-3 0  9995","CLASSIFICATION_TYPE":"U","PERIOD":"95.593","MEAN_ANOMALY":"242.2749","FILE":"3860373","INCLINATION":"53.0563","PERIAPSIS":"546.667","APOAPSIS":"547.889","REF_FRAME":"TEME","EPOCH":"2023-03-14T12:58:36.683040","REV_AT_EPOCH":"13532","EPHEMERIS_TYPE":"0","TIME_SYSTEM":"UTC","OBJECT_ID":"2020-070BG","BSTAR":"0.00034466000000","MEAN_MOTION":"15.06378902","SITE":"AFETR","OBJECT_NAME":"STARLINK-1737","MEAN_ELEMENT_THEORY":"SGP4","GP_ID":"228072080","COUNTRY_CODE":"US","ELEMENT_SET_NO":"999","ARG_OF_PERICENTER":"117.8330","TLE_LINE2":"2 46586  53.0563  14.9745 0000882 117.8330 242.2749 15.06378902135329","RCS_SIZE":"LARGE","LAUNCH_DATE":"2020-10-06","SEMIMAJOR_AXIS":"6925.413","RA_OF_ASC_NODE":"14.9745","MEAN_MOTION_DOT":"0.00004853","CENTER_NAME":"EARTH"}];
